[{"OBJECT_NAME":"IRIDIUM 165","OBJECT_ID":"2018-061D","EPOCH":"2026-03-09T12:28:22.404000","MEAN_MOTION":14.34217296,"ECCENTRICITY":0.00020877,"INCLINATION":86.3917,"RA_OF_ASC_NODE":98.4934,"ARG_OF_PERICENTER":96.9181,"MEAN_ANOMALY":263.2252,"EPHEMERIS_TYPE":0,"CLASSIFICATION_TYPE":"U","NORAD_CAT_ID":43572,"ELEMENT_SET_NO":999,"REV_AT_EPOCH":39910,"BSTAR":7.29473e-7,"MEAN_MOTION_DOT":2.2e-7,"MEAN_MOTION_DDOT":0},{"OBJECT_NAME":"CZ-6A DEB","OBJECT_ID":"2024-140WV","EPOCH":"2026-03-09T14:07:40.342368","MEAN_MOTION":14.48825982,"ECCENTRICITY":0.0072173,"INCLINATION":89.1205,"RA_OF_ASC_NODE":291.7286,"ARG_OF_PERICENTER":268.5857,"MEAN_ANOMALY":90.7081,"EPHEMERIS_TYPE":0,"CLASSIFICATION_TYPE":"U","NORAD_CAT_ID":61380,"ELEMENT_SET_NO":999,"REV_AT_EPOCH":7981,"BSTAR":0.00058946,"MEAN_MOTION_DOT":2.315e-5,"MEAN_MOTION_DDOT":0}]
